{
  "type": "FeatureCollection",
  "features": [
    {
      "type": "Feature",
      "properties": {
        "norad_id": 41948,
        "name": "CARTOSAT-2D",
        "group": "resource",
        "lat": 81.77443361098203,
        "lon": -59.33930324064746,
        "alt_km": 497.54092012072124,
        "timestamp": "2025-12-24T16:52:41.157827+00:00",
        "meta_object_name": "CARTOSAT-2D",
        "meta_object_id": "2017-008A",
        "meta_epoch": "2025-12-24T06:58:59.890944",
        "meta_mean_motion": 15.19176841,
        "meta_eccentricity": 0.00053626,
        "meta_inclination": 97.4373,
        "meta_ra_of_asc_node": 55.612,
        "meta_arg_of_pericenter": 120.5427,
        "meta_mean_anomaly": 239.6338,
        "meta_ephemeris_type": 0,
        "meta_classification_type": "U",
        "meta_norad_cat_id": 41948,
        "meta_element_set_no": 999,
        "meta_rev_at_epoch": 49102,
        "meta_bstar": 0.00021180896,
        "meta_mean_motion_dot": 4.388e-05,
        "meta_mean_motion_ddot": 0,
        "tle_line1": "1 41948U 17008A   25358.29097096  .00004388  00000+0  21181-3 0  9995",
        "tle_line2": "2 41948  97.4373  55.6120 0005362 120.5427 239.6338 15.19176841491020"
      },
      "geometry": {
        "type": "Point",
        "coordinates": [
          -59.33930324064746,
          81.77443361098203
        ]
      }
    },
    {
      "type": "Feature",
      "properties": {
        "norad_id": 42063,
        "name": "SENTINEL-2B",
        "group": "resource",
        "lat": -31.98501482682845,
        "lon": -114.42309406688314,
        "alt_km": 795.4847587055092,
        "timestamp": "2025-12-24T16:52:41.157837+00:00",
        "meta_object_name": "SENTINEL-2B",
        "meta_object_id": "2017-013A",
        "meta_epoch": "2025-12-24T07:29:50.906400",
        "meta_mean_motion": 14.30815606,
        "meta_eccentricity": 0.0001201,
        "meta_inclination": 98.5703,
        "meta_ra_of_asc_node": 70.5956,
        "meta_arg_of_pericenter": 92.4833,
        "meta_mean_anomaly": 267.6487,
        "meta_ephemeris_type": 0,
        "meta_classification_type": "U",
        "meta_norad_cat_id": 42063,
        "meta_element_set_no": 999,
        "meta_rev_at_epoch": 45963,
        "meta_bstar": 0.00011270124,
        "meta_mean_motion_dot": 2.52e-06,
        "meta_mean_motion_ddot": 0,
        "tle_line1": "1 42063U 17013A   25358.31239475  .00000252  00000+0  11270-3 0  9996",
        "tle_line2": "2 42063  98.5703  70.5956 0001201  92.4833 267.6487 14.30815606459635"
      },
      "geometry": {
        "type": "Point",
        "coordinates": [
          -114.42309406688314,
          -31.98501482682845
        ]
      }
    },
    {
      "type": "Feature",
      "properties": {
        "norad_id": 42767,
        "name": "CARTOSAT-2E",
        "group": "resource",
        "lat": 2.630832106708651,
        "lon": 55.788043616379035,
        "alt_km": 512.8375172758288,
        "timestamp": "2025-12-24T16:52:41.157847+00:00",
        "meta_object_name": "CARTOSAT-2E",
        "meta_object_id": "2017-036C",
        "meta_epoch": "2025-12-24T08:57:44.739072",
        "meta_mean_motion": 15.19183183,
        "meta_eccentricity": 0.0002628,
        "meta_inclination": 97.4537,
        "meta_ra_of_asc_node": 55.8073,
        "meta_arg_of_pericenter": 177.5767,
        "meta_mean_anomaly": 182.5481,
        "meta_ephemeris_type": 0,
        "meta_classification_type": "U",
        "meta_norad_cat_id": 42767,
        "meta_element_set_no": 999,
        "meta_rev_at_epoch": 47160,
        "meta_bstar": 0.00017875,
        "meta_mean_motion_dot": 3.692e-05,
        "meta_mean_motion_ddot": 0,
        "tle_line1": "1 42767U 17036C   25358.37343448  .00003692  00000+0  17875-3 0  9992",
        "tle_line2": "2 42767  97.4537  55.8073 0002628 177.5767 182.5481 15.19183183471606"
      },
      "geometry": {
        "type": "Point",
        "coordinates": [
          55.788043616379035,
          2.630832106708651
        ]
      }
    },
    {
      "type": "Feature",
      "properties": {
        "norad_id": 42920,
        "name": "FORMOSAT-5",
        "group": "resource",
        "lat": -4.740222574824317,
        "lon": 73.4700223619059,
        "alt_km": 727.2651492124542,
        "timestamp": "2025-12-24T16:52:41.157857+00:00",
        "meta_object_name": "FORMOSAT-5",
        "meta_object_id": "2017-049A",
        "meta_epoch": "2025-12-24T05:18:47.646720",
        "meta_mean_motion": 14.50766963,
        "meta_eccentricity": 0.00098295,
        "meta_inclination": 98.2439,
        "meta_ra_of_asc_node": 72.3092,
        "meta_arg_of_pericenter": 262.2078,
        "meta_mean_anomaly": 97.8001,
        "meta_ephemeris_type": 0,
        "meta_classification_type": "U",
        "meta_norad_cat_id": 42920,
        "meta_element_set_no": 999,
        "meta_rev_at_epoch": 44130,
        "meta_bstar": 6.9967239e-05,
        "meta_mean_motion_dot": 2.32e-06,
        "meta_mean_motion_ddot": 0,
        "tle_line1": "1 42920U 17049A   25358.22138480  .00000232  00000+0  69967-4 0  9996",
        "tle_line2": "2 42920  98.2439  72.3092 0009829 262.2078  97.8001 14.50766963441306"
      },
      "geometry": {
        "type": "Point",
        "coordinates": [
          73.4700223619059,
          -4.740222574824317
        ]
      }
    },
    {
      "type": "Feature",
      "properties": {
        "norad_id": 42969,
        "name": "SENTINEL-5P",
        "group": "resource",
        "lat": 54.77589739596203,
        "lon": 129.8262969888528,
        "alt_km": 821.1163229180174,
        "timestamp": "2025-12-24T16:52:41.157869+00:00",
        "meta_object_name": "SENTINEL-5P",
        "meta_object_id": "2017-064A",
        "meta_epoch": "2025-12-24T06:08:42.702720",
        "meta_mean_motion": 14.19520235,
        "meta_eccentricity": 0.0001047,
        "meta_inclination": 98.7802,
        "meta_ra_of_asc_node": 296.7388,
        "meta_arg_of_pericenter": 91.1389,
        "meta_mean_anomaly": 268.9907,
        "meta_ephemeris_type": 0,
        "meta_classification_type": "U",
        "meta_norad_cat_id": 42969,
        "meta_element_set_no": 999,
        "meta_rev_at_epoch": 42474,
        "meta_bstar": 5.7067925e-05,
        "meta_mean_motion_dot": 7.6e-07,
        "meta_mean_motion_ddot": 0,
        "tle_line1": "1 42969U 17064A   25358.25604980  .00000076  00000+0  57068-4 0  9997",
        "tle_line2": "2 42969  98.7802 296.7388 0001047  91.1389 268.9907 14.19520235424746"
      },
      "geometry": {
        "type": "Point",
        "coordinates": [
          129.8262969888528,
          54.77589739596203
        ]
      }
    },
    {
      "type": "Feature",
      "properties": {
        "norad_id": 42987,
        "name": "SKYSAT-C11",
        "group": "resource",
        "lat": -11.11659201620892,
        "lon": 137.96175725543836,
        "alt_km": 427.35398589516444,
        "timestamp": "2025-12-24T16:52:41.157879+00:00",
        "meta_object_name": "SKYSAT-C11",
        "meta_object_id": "2017-068A",
        "meta_epoch": "2025-12-24T04:30:53.019360",
        "meta_mean_motion": 15.47928653,
        "meta_eccentricity": 0.00011485,
        "meta_inclination": 97.4151,
        "meta_ra_of_asc_node": 135.9671,
        "meta_arg_of_pericenter": 95.0977,
        "meta_mean_anomaly": 265.0404,
        "meta_ephemeris_type": 0,
        "meta_classification_type": "U",
        "meta_norad_cat_id": 42987,
        "meta_element_set_no": 999,
        "meta_rev_at_epoch": 45608,
        "meta_bstar": 0.00048908624,
        "meta_mean_motion_dot": 0.0002545,
        "meta_mean_motion_ddot": 0,
        "tle_line1": "1 42987U 17068A   25358.18811365  .00025450  00000+0  48909-3 0  9996",
        "tle_line2": "2 42987  97.4151 135.9671 0001148  95.0977 265.0404 15.47928653456086"
      },
      "geometry": {
        "type": "Point",
        "coordinates": [
          137.96175725543836,
          -11.11659201620892
        ]
      }
    },
    {
      "type": "Feature",
      "properties": {
        "norad_id": 42988,
        "name": "SKYSAT-C10",
        "group": "resource",
        "lat": 56.63291758267955,
        "lon": -38.98556289104415,
        "alt_km": 461.332535593212,
        "timestamp": "2025-12-24T16:52:41.157890+00:00",
        "meta_object_name": "SKYSAT-C10",
        "meta_object_id": "2017-068B",
        "meta_epoch": "2025-12-23T21:32:17.126016",
        "meta_mean_motion": 15.32289982,
        "meta_eccentricity": 0.0005313,
        "meta_inclination": 97.4271,
        "meta_ra_of_asc_node": 128.7811,
        "meta_arg_of_pericenter": 72.934,
        "meta_mean_anomaly": 287.2483,
        "meta_ephemeris_type": 0,
        "meta_classification_type": "U",
        "meta_norad_cat_id": 42988,
        "meta_element_set_no": 999,
        "meta_rev_at_epoch": 45550,
        "meta_bstar": 0.00034377,
        "meta_mean_motion_dot": 0.00010647,
        "meta_mean_motion_ddot": 0,
        "tle_line1": "1 42988U 17068B   25357.89742044  .00010647  00000+0  34377-3 0  9997",
        "tle_line2": "2 42988  97.4271 128.7811 0005313  72.9340 287.2483 15.32289982455500"
      },
      "geometry": {
        "type": "Point",
        "coordinates": [
          -38.98556289104415,
          56.63291758267955
        ]
      }
    }
  ]
}